OBJECT_NAME,OBJECT_ID,EPOCH,MEAN_MOTION,ECCENTRICITY,INCLINATION,RA_OF_ASC_NODE,ARG_OF_PERICENTER,MEAN_ANOMALY,EPHEMERIS_TYPE,CLASSIFICATION_TYPE,NORAD_CAT_ID,ELEMENT_SET_NO,REV_AT_EPOCH,BSTAR,MEAN_MOTION_DOT,MEAN_MOTION_DDOT
EUTELSAT KA-SAT 9A,2010-069A,2026-06-20T07:44:19.508928,1.00269176,.0003782,0.0610,12.2628,114.8672,266.4917,0,U,37258,999,4403,0,.57E-6,0
HISPASAT 30W-5,2010-070A,2026-06-20T09:15:58.214880,1.00271429,.0005337,0.0545,106.3850,359.4608,271.7471,0,U,37264,999,5321,0,-.22E-5,0
KOREASAT 6,2010-070B,2026-06-20T09:04:38.784288,1.00271058,.0002243,0.0229,68.4332,29.4098,106.7797,0,U,37265,999,5680,0,-.116E-5,0
BEIDOU-2 IGSO-3,2011-013A,2026-06-18T14:41:11.762880,1.00267082,.0034295,62.4088,40.1377,184.6608,10.0015,0,U,37384,999,5567,0,-.19E-5,0
INTELSAT 28 (IS-28),2011-016A,2026-06-20T09:15:28.261728,1.00271258,.0003722,1.8156,82.5854,7.6584,285.4997,0,U,37392,999,5331,0,-.23E-5,0
YAHSAT 1A,2011-016B,2026-06-20T09:39:18.478080,1.00269635,.0003084,0.0156,0.9034,98.7277,6.3148,0,U,37393,999,4244,0,0,0
SBIRS GEO-1 (USA 230),2011-019A,2026-06-20T06:13:56.657856,1.00272301,.0001998,4.5425,53.1220,29.5709,331.0681,0,U,37481,999,5542,0,.93E-6,0
TELSTAR 14R,2011-021A,2026-06-20T02:15:54.622944,1.00271568,.00022855,0.0256,68.3391,351.2791,179.6656,0,U,37602,999,5586,0,-.285E-5,0
GSAT-8,2011-022A,2026-06-20T04:32:17.408832,1.00269263,.00020216,2.1400,81.7889,193.7112,116.0490,0,U,37605,999,5324,0,.8E-6,0
ST-2,2011-022B,2026-06-20T09:49:36.079968,1.00271314,.0001763,0.0174,69.2940,30.1644,44.5725,0,U,37606,999,5531,0,-.216E-5,0
ZHONGXING-10,2011-026A,2026-06-21T13:11:28.558176,1.00273273,.0003352,1.0595,84.1609,1.1510,107.7856,0,U,37677,999,5504,0,-.19E-5,0
SES-3,2011-035A,2026-06-20T08:30:38.771424,1.00271591,.0002382,1.3361,83.0559,358.6065,211.5647,0,U,37748,999,5462,0,-.107E-5,0
KAZSAT-2,2011-035B,2026-06-20T09:49:13.615968,1.00271191,.0001352,0.0368,204.5959,309.1308,348.7192,0,U,37749,999,5343,0,-.202E-5,0
BEIDOU-2 IGSO-4,2011-038A,2026-06-19T23:19:15.452832,1.00284537,.01595162,54.6006,165.6472,231.4774,314.4028,0,U,37763,999,5467,0,.22E-6,0
ASTRA 1N,2011-041A,2026-06-20T07:47:19.221792,1.00272264,.0006413,0.0722,28.0340,74.1092,302.4267,0,U,37775,999,4455,0,.115E-5,0
BSAT-3C (JCSAT-110R),2011-041B,2026-06-20T09:55:50.483136,1.00272966,.0000148,0.0158,343.2052,324.4593,219.8630,0,U,37776,999,5050,0,-.355E-5,0
PAKSAT-1R,2011-042A,2026-06-20T06:09:57.041280,1.00268046,.0003342,0.6981,84.5700,340.1409,334.2238,0,U,37779,999,5450,0,.149E-5,0
SES-2,2011-049A,2026-06-20T09:20:38.499936,1.00271736,.0002714,0.0701,96.8317,349.6425,235.2805,0,U,37809,999,5399,0,-.2E-5,0
ARABSAT-5C,2011-049B,2026-06-20T07:47:34.199232,1.00273101,.0003461,0.0558,25.3787,82.0626,297.9854,0,U,37810,999,5406,0,.119E-5,0
EUTELSAT 7 WEST A,2011-051A,2026-06-20T09:22:20.103744,1.00271971,.0004255,0.0679,22.5916,76.3569,302.9137,0,U,37816,999,5390,0,-.65E-6,0
QUETZSAT 1,2011-054A,2026-06-20T09:02:29.507424,1.00271979,.0002657,0.0334,59.3393,30.4863,237.3860,0,U,37826,999,4990,0,-.246E-5,0
INTELSAT 18 (IS-18),2011-056A,2026-06-20T08:33:08.506080,1.00271683,.0001818,0.0337,273.9541,176.4973,126.3906,0,U,37834,999,5384,0,.48E-6,0
EUTELSAT 16A,2011-057A,2026-06-20T07:46:19.318080,1.00269662,.0005674,0.0401,347.1884,102.0888,311.8462,0,U,37836,999,736,0,.99E-6,0
VIASAT-1,2011-059A,2026-06-19T22:35:41.436384,1.00271358,.00022126,0.0194,344.2727,100.0370,47.6617,0,U,37843,999,4735,0,-.29E-6,0
ASIASAT 7,2011-069A,2026-06-21T03:59:38.834016,1.00270218,.0001326,0.0432,87.0342,342.3575,5.3960,0,U,37933,999,4489,0,-.336E-5,0
BEIDOU-2 IGSO-5,2011-073A,2026-06-18T16:01:15.839616,1.00272695,.01139717,47.6748,271.5267,221.7702,105.6518,0,U,37948,999,5314,0,-.192E-5,0
LUCH-5A,2011-074B,2026-06-21T12:07:38.862624,1.00271231,.0002478,8.7658,73.7450,27.2246,157.5700,0,U,37951,999,5309,0,-.55E-6,0
NIGCOMSAT 1R,2011-077A,2026-06-20T06:11:19.408992,1.00271454,.0002526,0.0473,111.0877,241.1463,51.5414,0,U,38014,999,5298,0,.14E-5,0
WGS F4 (USA 233),2012-003A,2026-06-20T08:07:06.433824,1.00272401,.0000095,0.0194,36.9926,309.2912,132.4547,0,U,38070,999,4418,0,-.22E-5,0
SES-4,2012-007A,2026-06-20T02:27:31.685184,1.00268006,.00027752,0.0254,31.8182,77.4924,173.8905,0,U,38087,999,5225,0,-.174E-5,0
BEIDOU-2 G5,2012-008A,2026-06-21T00:57:21.636000,1.00273091,.0009015,3.5845,69.6825,273.5349,359.0277,0,U,38091,999,5240,0,.53E-6,0
MUOS-1,2012-009A,2026-06-20T03:58:55.169184,1.00269886,.00584225,5.4817,47.1497,2.0238,178.9110,0,U,38093,999,5247,0,-.134E-5,0
INTELSAT 22 (IS-22),2012-011A,2026-06-20T09:45:06.511104,1.00272486,.000152,0.0176,47.9570,46.6214,32.4229,0,U,38098,999,722,0,-.63E-6,0
APSTAR-7,2012-013A,2026-06-21T09:43:29.655840,1.00271651,.0002686,0.0357,87.0287,10.8421,34.0990,0,U,38107,999,5185,0,-.103E-5,0
YAHSAT 1B,2012-016A,2026-06-20T01:04:45.448608,1.00275220,.00028238,0.0895,89.7270,17.2229,225.0965,0,U,38245,999,4563,0,.121E-5,0
AEHF-2 (USA 235),2012-019A,2026-06-20T09:19:50.344032,1.00271549,.0002221,6.6576,57.4654,27.3152,307.2115,0,U,38254,999,701,0,-.142E-5,0
JCSAT-13,2012-023A,2026-06-20T11:35:28.853376,1.00272452,.0002373,0.0265,67.0330,19.9743,119.5641,0,U,38331,999,5157,0,-.36E-5,0
VINASAT-2,2012-023B,2026-06-19T22:03:31.692384,1.00271085,.00021978,0.0136,359.2227,92.1545,279.4824,0,U,38332,999,4668,0,-.334E-5,0
NIMIQ 6,2012-026A,2026-06-20T08:58:29.889120,1.00272093,.0002676,0.0119,354.9173,90.0185,227.1625,0,U,38342,999,5044,0,-.178E-5,0
ZHONGXING-2A,2012-028A,2026-06-20T03:01:51.068928,1.00271875,.00039514,1.4631,83.8506,43.8835,284.3059,0,U,38352,999,5132,0,-.298E-5,0
INTELSAT 19 (IS-19),2012-030A,2026-06-20T09:04:38.784288,1.00271802,.0003032,0.0149,26.2915,71.0261,113.4249,0,U,38356,999,5048,0,-.61E-6,0
ECHOSTAR 17,2012-035A,2026-06-20T00:20:36.975840,1.00270699,.00022041,0.0186,17.0829,68.9983,80.1950,0,U,38551,999,5109,0,-.8E-6,0
METEOSAT-10 (MSG-3),2012-035B,2026-06-20T00:51:16.742016,1.00266543,.00014843,4.6793,61.0121,2.4454,217.8971,0,U,38552,999,5088,0,-.13E-6,0
SES-5,2012-036A,2026-06-20T02:35:15.942624,1.00272034,.00018505,0.0456,317.0080,132.7689,222.3295,0,U,38652,999,4448,0,.29E-6,0
INTELSAT 20 (IS-20),2012-043A,2026-06-20T09:43:44.144256,1.00270360,.0001322,0.0049,38.4447,143.5655,301.0434,0,U,38740,999,5078,0,-.29E-6,0
HYLAS 2,2012-043B,2026-06-20T09:03:44.386848,1.00272037,.0002469,2.4365,81.0337,28.4508,222.4626,0,U,38741,999,5080,0,-.262E-5,0
INTELSAT 21 (IS-21),2012-045A,2026-06-20T09:07:58.980000,1.00272238,.000146,0.0191,17.6891,83.4046,246.4937,0,U,38749,999,5055,0,-.289E-5,0
ASTRA 2F,2012-051A,2026-06-20T07:49:48.984096,1.00271758,.0001656,0.0546,254.3347,280.1839,239.6386,0,U,38778,999,4116,0,.145E-5,0
GSAT-10,2012-051B,2026-06-20T09:48:13.713120,1.00272193,.0007842,0.0717,261.2491,187.3061,50.1329,0,U,38779,999,5013,0,-.169E-5,0
INTELSAT 23 (IS-23),2012-057A,2026-06-19T05:29:59.907840,1.00267375,.00001343,0.0099,325.5761,86.5042,244.8525,0,U,38867,999,4997,0,-.291E-5,0
BEIDOU-2 G6,2012-059A,2026-06-19T17:02:03.598368,1.00271500,.00096327,4.4288,73.4979,324.3686,209.6174,0,U,38953,999,4993,0,-.183E-5,0
LUCH-5B,2012-061A,2026-06-18T21:24:08.583264,1.00272094,.0002465,10.4892,49.8655,150.1855,11.8366,0,U,38977,999,4962,0,-.148E-5,0
YAMAL 300K,2012-061B,2026-06-21T12:29:38.700384,1.00269991,.0001182,0.0131,275.5126,348.7490,15.8095,0,U,38978,999,4967,0,.7E-6,0
STAR ONE C3,2012-062A,2026-06-20T08:54:38.574720,1.00267776,.0002534,0.0196,8.7180,93.9811,224.5560,0,U,38991,999,4979,0,0,0
EUTELSAT 21B,2012-062B,2026-06-20T07:47:56.663232,1.00269086,.0003048,0.0650,351.1649,87.9936,327.9799,0,U,38992,999,4985,0,.125E-5,0
ECHOSTAR 16,2012-065A,2026-06-20T09:06:59.077152,1.00270642,.0002049,0.0191,10.2647,82.9109,250.6586,0,U,39008,999,4967,0,-.286E-5,0
ZHONGXING-12,2012-067A,2026-06-21T13:11:36.045600,1.00270973,.0002832,0.0480,93.3167,347.4279,114.3902,0,U,39017,999,4955,0,-.208E-5,0
EUTELSAT 70B,2012-069A,2026-06-20T09:44:36.558816,1.00271913,.0003863,0.0680,22.0297,59.0398,44.1885,0,U,39020,999,4954,0,-.48E-6,0
YAMAL 402,2012-070A,2026-06-21T13:02:29.078304,1.00271782,.0003866,1.2772,84.1139,4.4259,71.7085,0,U,39022,999,4944,0,.84E-6,0
SKYNET 5D,2012-075A,2026-06-20T09:39:33.452928,1.00271933,.0003655,0.0657,357.9255,98.8857,9.4548,0,U,39034,999,4919,0,.95E-6,0
MEXSAT 3,2012-075B,2026-06-20T08:51:45.536256,1.00269027,.0001514,0.0181,41.8550,32.8939,211.9577,0,U,39035,999,708,0,-.3E-6,0
TDRS 11,2013-004A,2026-06-20T08:34:45.851232,1.00270611,.0005326,3.5252,31.3084,21.7113,169.8062,0,U,39070,999,4672,0,.73E-6,0
AMAZONAS 3,2013-006A,2026-06-20T09:07:06.563712,1.00271547,.0002138,0.0108,248.8820,243.2053,212.2865,0,U,39078,999,4494,0,-.287E-5,0
AZERSPACE 1,2013-006B,2026-06-20T04:29:40.159968,1.00271706,.00014429,0.0220,61.3800,56.9674,263.4413,0,U,39079,999,4883,0,.128E-5,0
SBIRS GEO-2 (USA 241),2013-011A,2026-06-20T04:02:12.791904,1.00271628,.00021407,4.4956,52.5092,29.8679,196.7596,0,U,39120,999,4856,0,-.293E-5,0
EUTELSAT 117 WEST A,2013-012A,2026-06-20T08:46:38.646048,1.00272134,.0002809,0.0223,39.9608,49.3889,194.0807,0,U,39122,999,4846,0,-.17E-6,0
ANIK G1,2013-014A,2026-06-20T08:38:38.700096,1.00271735,.0001634,0.0389,271.9613,172.0946,206.8551,0,U,39127,999,4828,0,-.78E-6,0
ZHONGXING-11,2013-020A,2026-06-21T13:14:56.556672,1.00273194,.0002342,0.0291,298.5694,127.6537,140.1548,0,U,39157,999,4794,0,-.292E-5,0
EUTELSAT 7B,2013-022A,2026-06-20T09:26:27.211200,1.00270344,.0004439,0.0639,358.4630,38.2500,20.4962,0,U,39163,999,4797,0,.43E-6,0
WGS F5 (USA 243),2013-024A,2026-06-20T09:09:28.836864,1.00268976,.0000191,0.0190,1.7175,3.4151,348.3247,0,U,39168,999,4720,0,0,0
SES-6,2013-026A,2026-06-20T09:12:58.502016,1.00272290,.0002555,0.0186,337.8981,114.3836,274.0592,0,U,39172,999,4775,0,-.266E-5,0
IRNSS-1A,2013-034A,2026-06-18T21:29:26.733984,1.00275723,.00175894,35.7241,63.8469,183.2529,37.3106,0,U,39199,999,4738,0,.51E-6,0
MUOS-2,2013-036A,2026-06-20T08:30:53.722080,1.00273721,.005124,5.0011,45.5331,177.3818,345.3547,0,U,39206,999,4722,0,-.19E-6,0
